{
  "norad_id": 57086,
  "name": "STARLINK-6247",
  "history": [
    {
      "epoch": "2026-03-28T18:31:28.851744Z",
      "apogee_km": 486.40122058067755,
      "perigee_km": 484.91040478176365,
      "latitude_deg": -3.108046421588447e-05,
      "longitude_deg": -116.12516623374994,
      "height_km": 485.21174781857627,
      "semi_major_axis_km": 6863.79281268122,
      "eccentricity": 0.0001086,
      "inclination_deg": 43.0045,
      "raan_deg": 347.9326,
      "arg_perigee_deg": 287.2528,
      "mean_anomaly_deg": 72.8204,
      "mean_motion_rev_day": 15.26709871
    },
    {
      "epoch": "2026-03-29T02:22:31.867680Z",
      "apogee_km": 486.46758660602427,
      "perigee_km": 484.8449858731583,
      "latitude_deg": 2.59798138995779e-06,
      "longitude_deg": 123.94648078845793,
      "height_km": 485.1725458203279,
      "semi_major_axis_km": 6863.793286239591,
      "eccentricity": 0.0001182,
      "inclination_deg": 43.0012,
      "raan_deg": 346.0892,
      "arg_perigee_deg": 288.7259,
      "mean_anomaly_deg": 71.3464,
      "mean_motion_rev_day": 15.26709713
    },
    {
      "epoch": "2026-03-30T01:55:39.050976Z",
      "apogee_km": 486.4229614065316,
      "perigee_km": 484.7244675531265,
      "latitude_deg": -2.8162932648845407e-05,
      "longitude_deg": 124.16507205561088,
      "height_km": 484.9956283371509,
      "semi_major_axis_km": 6863.710714479828,
      "eccentricity": 0.00012373,
      "inclination_deg": 43.001,
      "raan_deg": 340.555,
      "arg_perigee_deg": 294.6948,
      "mean_anomaly_deg": 65.3774,
      "mean_motion_rev_day": 15.26737263
    },
    {
      "epoch": "2026-03-30T09:46:41.232288Z",
      "apogee_km": 486.4193589428205,
      "perigee_km": 484.66308095989825,
      "latitude_deg": 3.7858178790170205e-05,
      "longitude_deg": 4.239241111204549,
      "height_km": 484.92082573822097,
      "semi_major_axis_km": 6863.678219951359,
      "eccentricity": 0.00012794,
      "inclination_deg": 43.0004,
      "raan_deg": 338.7106,
      "arg_perigee_deg": 296.8821,
      "mean_anomaly_deg": 63.19,
      "mean_motion_rev_day": 15.26748105
    },
    {
      "epoch": "2026-03-30T17:37:43.500864Z",
      "apogee_km": 486.3761058357122,
      "perigee_km": 484.6455056779678,
      "latitude_deg": -1.709247070811545e-05,
      "longitude_deg": -115.68838343568564,
      "height_km": 484.93568092224643,
      "semi_major_axis_km": 6863.647805756839,
      "eccentricity": 0.00012607,
      "inclination_deg": 43.0008,
      "raan_deg": 336.8649,
      "arg_perigee_deg": 293.992,
      "mean_anomaly_deg": 66.0799,
      "mean_motion_rev_day": 15.26758253
    },
    {
      "epoch": "2026-03-31T09:19:47.651808Z",
      "apogee_km": 486.29922262823857,
      "perigee_km": 484.7054855702163,
      "latitude_deg": 9.660326544287062e-06,
      "longitude_deg": 4.459526904159343,
      "height_km": 484.9394408595706,
      "semi_major_axis_km": 6863.639354099227,
      "eccentricity": 0.0001161,
      "inclination_deg": 43.0001,
      "raan_deg": 333.1749,
      "arg_perigee_deg": 295.2132,
      "mean_anomaly_deg": 64.8599,
      "mean_motion_rev_day": 15.26761073
    },
    {
      "epoch": "2026-04-01T01:01:53.561856Z",
      "apogee_km": 486.15276299370635,
      "perigee_km": 485.0459168715279,
      "latitude_deg": 1.5847791500783378e-05,
      "longitude_deg": 124.59906570369749,
      "height_km": 485.2376849622569,
      "semi_major_axis_km": 6863.736339932617,
      "eccentricity": 8.063e-05,
      "inclination_deg": 42.9999,
      "raan_deg": 329.4839,
      "arg_perigee_deg": 284.4297,
      "mean_anomaly_deg": 75.6465,
      "mean_motion_rev_day": 15.26728713
    },
    {
      "epoch": "2026-04-02T14:42:52.546752Z",
      "apogee_km": 486.1011444213582,
      "perigee_km": 484.8136713823242,
      "latitude_deg": 1.9395412099492822e-06,
      "longitude_deg": -91.04800584876293,
      "height_km": 484.88382604109796,
      "semi_major_axis_km": 6863.594407901841,
      "eccentricity": 9.379e-05,
      "inclination_deg": 42.9986,
      "raan_deg": 320.6302,
      "arg_perigee_deg": 302.9066,
      "mean_anomaly_deg": 57.1695,
      "mean_motion_rev_day": 15.2677607
    },
    {
      "epoch": "2026-04-02T22:33:54.381600Z",
      "apogee_km": 485.7351147115269,
      "perigee_km": 485.11876666965236,
      "latitude_deg": -2.1504750725307287e-05,
      "longitude_deg": 149.0231151997875,
      "height_km": 485.0157909622945,
      "semi_major_axis_km": 6863.563940690589,
      "eccentricity": 4.49e-05,
      "inclination_deg": 42.9982,
      "raan_deg": 318.7814,
      "arg_perigee_deg": 307.3165,
      "mean_anomaly_deg": 52.7645,
      "mean_motion_rev_day": 15.26786236
    },
    {
      "epoch": "2026-04-03T14:15:58.915296Z",
      "apogee_km": 485.70930017793853,
      "perigee_km": 485.30434519240043,
      "latitude_deg": -4.438893017632715e-05,
      "longitude_deg": -90.83032741885208,
      "height_km": 485.22878115001413,
      "semi_major_axis_km": 6863.64382268517,
      "eccentricity": 2.95e-05,
      "inclination_deg": 42.9979,
      "raan_deg": 315.0917,
      "arg_perigee_deg": 285.3488,
      "mean_anomaly_deg": 74.733,
      "mean_motion_rev_day": 15.26759582
    },
    {
      "epoch": "2026-04-04T07:32:16.352160Z",
      "apogee_km": 485.9359000596887,
      "perigee_km": 485.15920551569525,
      "latitude_deg": -1.3305172858005945e-05,
      "longitude_deg": 5.328436082982171,
      "height_km": 485.4129648009302,
      "semi_major_axis_km": 6863.684552787691,
      "eccentricity": 5.658e-05,
      "inclination_deg": 42.9987,
      "raan_deg": 311.0324,
      "arg_perigee_deg": 256.6701,
      "mean_anomaly_deg": 103.4087,
      "mean_motion_rev_day": 15.26745992
    },
    {
      "epoch": "2026-04-05T13:22:13.560096Z",
      "apogee_km": 486.1635281063791,
      "perigee_km": 484.96759657191706,
      "latitude_deg": -1.6241801395534503e-05,
      "longitude_deg": -90.39481471029498,
      "height_km": 485.41610833956435,
      "semi_major_axis_km": 6863.702562339147,
      "eccentricity": 8.712e-05,
      "inclination_deg": 42.9999,
      "raan_deg": 304.0227,
      "arg_perigee_deg": 262.8677,
      "mean_anomaly_deg": 97.2075,
      "mean_motion_rev_day": 15.26739983
    },
    {
      "epoch": "2026-04-06T06:38:31.343424Z",
      "apogee_km": 486.0567288060147,
      "perigee_km": 485.0921028036373,
      "latitude_deg": 4.0037347544851225e-05,
      "longitude_deg": 5.761426954574902,
      "height_km": 485.5115986754495,
      "semi_major_axis_km": 6863.711415804826,
      "eccentricity": 7.027e-05,
      "inclination_deg": 43.0002,
      "raan_deg": 299.9623,
      "arg_perigee_deg": 250.4935,
      "mean_anomaly_deg": 109.5841,
      "mean_motion_rev_day": 15.26737029
    },
    {
      "epoch": "2026-04-07T14:02:40.747776Z",
      "apogee_km": 486.0327376061696,
      "perigee_km": 485.0882928280762,
      "latitude_deg": -3.5623892960489224e-05,
      "longitude_deg": -113.94810150420956,
      "height_km": 485.50255578926334,
      "semi_major_axis_km": 6863.697515217123,
      "eccentricity": 6.88e-05,
      "inclination_deg": 43.0014,
      "raan_deg": 292.5817,
      "arg_perigee_deg": 249.4471,
      "mean_anomaly_deg": 110.6306,
      "mean_motion_rev_day": 15.26741667
    },
    {
      "epoch": "2026-04-08T13:35:48.143616Z",
      "apogee_km": 486.02863107584017,
      "perigee_km": 485.0922854685832,
      "latitude_deg": 1.2764291594314995e-05,
      "longitude_deg": -113.7316173733183,
      "height_km": 485.5384742583193,
      "semi_major_axis_km": 6863.697458272211,
      "eccentricity": 6.821e-05,
      "inclination_deg": 43.0008,
      "raan_deg": 287.0462,
      "arg_perigee_deg": 244.4579,
      "mean_anomaly_deg": 115.6202,
      "mean_motion_rev_day": 15.26741686
    },
    {
      "epoch": "2026-04-09T19:25:45.006816Z",
      "apogee_km": 485.9692468120693,
      "perigee_km": 485.13324958343856,
      "latitude_deg": 6.326345306555153e-06,
      "longitude_deg": 150.5444663885078,
      "height_km": 485.54641717452796,
      "semi_major_axis_km": 6863.688248197754,
      "eccentricity": 6.09e-05,
      "inclination_deg": 42.9997,
      "raan_deg": 280.0344,
      "arg_perigee_deg": 238.3666,
      "mean_anomaly_deg": 121.7126,
      "mean_motion_rev_day": 15.26744759
    },
    {
      "epoch": "2026-04-11T18:31:59.528928Z",
      "apogee_km": 486.2416461378316,
      "perigee_km": 484.8936145484322,
      "latitude_deg": 6.480748490371093e-06,
      "longitude_deg": 150.9788596776065,
      "height_km": 485.6593196877973,
      "semi_major_axis_km": 6863.704630343132,
      "eccentricity": 9.82e-05,
      "inclination_deg": 43.0011,
      "raan_deg": 268.9638,
      "arg_perigee_deg": 242.1101,
      "mean_anomaly_deg": 117.9651,
      "mean_motion_rev_day": 15.26739293
    },
    {
      "epoch": "2026-04-13T03:30:21.372480Z",
      "apogee_km": 486.2930970768857,
      "perigee_km": 484.82591331193544,
      "latitude_deg": 3.380056187021523e-05,
      "longitude_deg": 7.284631152057608,
      "height_km": 485.59093269070286,
      "semi_major_axis_km": 6863.696505194411,
      "eccentricity": 0.00010688,
      "inclination_deg": 43.001,
      "raan_deg": 261.2147,
      "arg_perigee_deg": 249.6665,
      "mean_anomaly_deg": 110.4072,
      "mean_motion_rev_day": 15.26742004
    },
    {
      "epoch": "2026-04-14T17:11:21.166944Z",
      "apogee_km": 487.3103084038121,
      "perigee_km": 483.8098229003308,
      "latitude_deg": 1.021859777460356e-05,
      "longitude_deg": 151.6294668226168,
      "height_km": 484.8260938406439,
      "semi_major_axis_km": 6863.697065652072,
      "eccentricity": 0.000255,
      "inclination_deg": 43.0049,
      "raan_deg": 252.3563,
      "arg_perigee_deg": 287.015,
      "mean_anomaly_deg": 73.0422,
      "mean_motion_rev_day": 15.26741817
    }
  ]
}